0 ARASE (ERG)
1 41896U 16080A   18351.49198107 -.00000406  00000-0 -68364-3 0  9992
2 41896  31.8942   5.0407 7011927 193.0175 129.2574  2.53713417 18468
0 ARASE (ERG)
1 41896U 16080A   18350.31230626 -.00000556 +00000-0 -77222-3 0  9994
2 41896 031.8944 005.4941 7011986 192.3215 131.7869 02.53714039018410
