CCSDS_OMM_VERS                     =2.0                      
COMMENT                            =GENERATED VIA SPACE-TRACK.ORG API
CREATION_DATE                      =2018-12-17T04:00:39      
ORIGINATOR                         =18 SPCS                  
OBJECT_NAME                        =ARASE (ERG)              
OBJECT_ID                          =2016-080A                
CENTER_NAME                        =EARTH                    
REF_FRAME                          =TEME                     
TIME_SYSTEM                        =UTC                      
MEAN_ELEMENT_THEORY                =SGP4                     
EPOCH                              =2018-12-16T07:29:43.260864
MEAN_MOTION                        =2.53714039               
ECCENTRICITY                       =0.70119860               
INCLINATION                        =31.8944                  
RA_OF_ASC_NODE                     =5.4941                   
ARG_OF_PERICENTER                  =192.3215                 
MEAN_ANOMALY                       =131.7869                 
EPHEMERIS_TYPE                     =0                        
CLASSIFICATION_TYPE                =U                        
NORAD_CAT_ID                       =41896                    
ELEMENT_SET_NO                     =999                      
REV_AT_EPOCH                       =1841                     
BSTAR                              =-0.00077222000000        
MEAN_MOTION_DOT                    =-0.00000556              
MEAN_MOTION_DDOT                   =0.0000000000000          
USER_DEFINED_SEMIMAJOR_AXIS        =22707.649                
USER_DEFINED_PERIOD                =567.568                  
USER_DEFINED_APOAPSIS              =32252.085                
USER_DEFINED_PERIAPSIS             =406.942                  
USER_DEFINED_OBJECT_TYPE           =PAYLOAD                  
USER_DEFINED_RCS_SIZE              =LARGE                    
USER_DEFINED_COUNTRY_CODE          =JPN                      
USER_DEFINED_LAUNCH_DATE           =2016-12-20               
USER_DEFINED_SITE                  =KSCUT                    
USER_DEFINED_DECAY_DATE            =                         
USER_DEFINED_FILE                  =2378317                  
USER_DEFINED_GP_ID                 =125301549                

CCSDS_OMM_VERS                     =2.0                      
COMMENT                            =GENERATED VIA SPACE-TRACK.ORG API
CREATION_DATE                      =2018-12-17T14:18:18      
ORIGINATOR                         =18 SPCS                  
OBJECT_NAME                        =ARASE (ERG)              
OBJECT_ID                          =2016-080A                
CENTER_NAME                        =EARTH                    
REF_FRAME                          =TEME                     
TIME_SYSTEM                        =UTC                      
MEAN_ELEMENT_THEORY                =SGP4                     
EPOCH                              =2018-12-17T11:48:27.164448
MEAN_MOTION                        =2.53713417               
ECCENTRICITY                       =0.70119270               
INCLINATION                        =31.8942                  
RA_OF_ASC_NODE                     =5.0407                   
ARG_OF_PERICENTER                  =193.0175                 
MEAN_ANOMALY                       =129.2574                 
EPHEMERIS_TYPE                     =0                        
CLASSIFICATION_TYPE                =U                        
NORAD_CAT_ID                       =41896                    
ELEMENT_SET_NO                     =999                      
REV_AT_EPOCH                       =1846                     
BSTAR                              =-0.00068364000000        
MEAN_MOTION_DOT                    =-0.00000406              
MEAN_MOTION_DDOT                   =0.0000000000000          
USER_DEFINED_SEMIMAJOR_AXIS        =22707.686                
USER_DEFINED_PERIOD                =567.569                  
USER_DEFINED_APOAPSIS              =32252.015                
USER_DEFINED_PERIAPSIS             =407.087                  
USER_DEFINED_OBJECT_TYPE           =PAYLOAD                  
USER_DEFINED_RCS_SIZE              =LARGE                    
USER_DEFINED_COUNTRY_CODE          =JPN                      
USER_DEFINED_LAUNCH_DATE           =2016-12-20               
USER_DEFINED_SITE                  =KSCUT                    
USER_DEFINED_DECAY_DATE            =                         
USER_DEFINED_FILE                  =2378499                  
USER_DEFINED_GP_ID                 =125306414                

